NORAD_CAT_ID,OBJECT_NAME,OBJECT_TYPE,EPOCH,MEAN_MOTION,ECCENTRICITY,INCLINATION,RA_OF_ASC_NODE,ARG_OF_PERICENTER,MEAN_ANOMALY,BSTAR,MEAN_MOTION_DOT,MEAN_MOTION_DDOT,TLE_LINE0,TLE_LINE1,TLE_LINE2,SEMIMAJOR_AXIS,PERIOD,APOGEE,PERIGEE,DECAYED
49425.0,STARLINK-3139,PAYLOAD,2023-04-20 11:10:05,15.0883981,0.0001298,53.2146,281.7272,77.9345,282.1793,0.00010373,1.363e-05,0.0,0 STARLINK-3139,1 49425U 21104T   23110.46534599  .00001363  00000-0  10373-3 0  9994,2 49425  53.2146 281.7272 0001298  77.9345 282.1793 15.08839810 79484,6917.881,95.438,540.644,538.848,0.0
49425.0,STARLINK-3139,PAYLOAD,2023-04-20 17:31:38,15.08837983,0.0001337,53.2156,280.5372,76.4275,283.6866,6.6471e-05,7.7e-06,0.0,0 STARLINK-3139,1 49425U 21104T   23110.73030726  .00000770  00000-0  66471-4 0  9999,2 49425  53.2156 280.5372 0001337  76.4275 283.6866 15.08837983 79524,6917.887,95.438,540.676,538.827,0.0
49425.0,STARLINK-3139,PAYLOAD,2023-04-21 04:39:20,15.08839133,0.0001354,53.2152,278.4557,75.441,284.6732,6.3946e-05,7.3e-06,0.0,0 STARLINK-3139,1 49425U 21104T   23111.19398707  .00000730  00000-0  63946-4 0  9996,2 49425  53.2152 278.4557 0001354  75.4410 284.6732 15.08839133 79599,6917.883,95.438,540.685,538.811,0.0
49425.0,STARLINK-3139,PAYLOAD,2023-04-21 11:00:53,15.08839717,0.000157,53.2162,277.2656,73.6177,286.4988,0.00011189,1.493e-05,0.0,0 STARLINK-3139,1 49425U 21104T   23111.45894886  .00001493  00000-0  11189-3 0  9992,2 49425  53.2162 277.2656 0001570  73.6177 286.4988 15.08839717 79633,6917.881,95.438,540.832,538.66,0.0
49425.0,STARLINK-3139,PAYLOAD,2023-04-22 12:27:03,15.08841856,0.000109,53.2146,272.5066,84.8718,275.2398,0.0001757,2.51e-05,0.0,0 STARLINK-3139,1 49425U 21104T   23112.51878653  .00002510  00000-0  17570-3 0  9995,2 49425  53.2146 272.5066 0001090  84.8718 275.2398 15.08841856 80876,6917.875,95.437,540.494,538.986,0.0
49425.0,STARLINK-3139,PAYLOAD,2023-04-22 20:23:58,15.08849001,0.0001276,53.2146,271.0217,60.1485,299.9633,0.00022946,3.367e-05,0.0,0 STARLINK-3139,1 49425U 21104T   23112.84998335  .00003367  00000-0  22946-3 0  9995,2 49425  53.2146 271.0217 0001276  60.1485 299.9633 15.08849001 79842,6917.853,95.437,540.601,538.835,0.0
49425.0,STARLINK-3139,PAYLOAD,2023-04-23 12:17:50,15.08834655,0.0001353,53.216,268.0447,88.4129,271.7018,-1.2718e-05,-4.9e-06,0.0,0 STARLINK-3139,1 49425U 21104T   23113.51239168 -.00000490  00000-0 -12718-4 0  9995,2 49425  53.2160 268.0447 0001353  88.4129 271.7018 15.08834655 81020,6917.897,95.438,540.698,538.826,0.0
49425.0,STARLINK-3139,PAYLOAD,2023-04-23 20:14:46,15.08841422,0.000127,53.2156,266.5575,72.3129,287.8002,0.00014565,2.031e-05,0.0,0 STARLINK-3139,1 49425U 21104T   23113.84359039  .00002031  00000-0  14565-3 0  9993,2 49425  53.2156 266.5575 0001270  72.3129 287.8002 15.08841422 79994,6917.876,95.437,540.62,538.862,0.0
49425.0,STARLINK-3139,PAYLOAD,2023-04-24 12:08:36,15.08894719,0.0001132,53.2162,263.5844,71.4646,288.6469,0.0024388,0.00038798,0.0,0 STARLINK-3139,1 49425U 21104T   23114.50598137  .00038798  00000-0  24388-2 0  9993,2 49425  53.2162 263.5844 0001132  71.4646 288.6469 15.08894719 80094,6917.713,95.434,540.361,538.795,0.0
49425.0,STARLINK-3139,PAYLOAD,2023-04-24 16:54:45,15.08936873,0.0001208,53.2159,262.6922,71.013,289.0993,0.0036906,0.00059097,0.0,0 STARLINK-3139,1 49425U 21104T   23114.70468938  .00059097  00000-0  36906-2 0  9994,2 49425  53.2159 262.6922 0001208  71.0130 289.0993 15.08936873 81204,6917.584,95.431,540.285,538.614,0.0
49425.0,STARLINK-3139,PAYLOAD,2023-04-25 02:27:04,15.08840766,0.0002769,53.2191,260.91,81.5332,278.5974,-0.00025682,-4.374e-05,0.0,0 STARLINK-3139,1 49425U 21104T   23115.10214087 -.00004374  00000-0 -25682-3 0  9993,2 49425  53.2191 260.9100 0002769  81.5332 278.5974 15.08840766 81265,6917.878,95.438,541.659,537.827,0.0
49425.0,STARLINK-3139,PAYLOAD,2023-04-25 11:59:24,15.08796875,6.68e-05,53.215,259.123,98.1711,261.9357,-0.001785,-0.00028549,0.0,0 STARLINK-3139,1 49425U 21104T   23115.49958697 -.00028549  00000-0 -17850-2 0  9994,2 49425  53.2150 259.1230 0000668  98.1711 261.9357 15.08796875 81324,6918.012,95.44,540.339,539.415,0.0
49425.0,STARLINK-3139,PAYLOAD,2023-04-26 11:50:13,15.08828931,0.0001239,53.217,254.6681,104.9991,255.1138,0.00080854,0.00012599,0.0,0 STARLINK-3139,1 49425U 21104T   23116.49321127  .00012599  00000-0  80854-3 0  9998,2 49425  53.2170 254.6681 0001239 104.9991 255.1138 15.08828931 80394,6917.914,95.438,540.636,538.922,0.0
49425.0,STARLINK-3139,PAYLOAD,2023-04-26 18:11:45,15.08851467,6.16e-05,53.2155,253.4748,108.3317,251.7742,0.0018469,0.00029237,0.0,0 STARLINK-3139,1 49425U 21104T   23116.75816995  .00029237  00000-0  18469-2 0  9998,2 49425  53.2155 253.4748 0000616 108.3317 251.7742 15.08851467 80434,6917.845,95.437,540.136,539.284,0.0
49425.0,STARLINK-3139,PAYLOAD,2023-04-27 02:08:41,15.08867826,6.05e-05,53.2151,251.9886,103.5586,256.5473,0.0016888,0.00026712,0.0,0 STARLINK-3139,1 49425U 21104T   23117.08936577  .00026712  00000-0  16888-2 0  9992,2 49425  53.2151 251.9886 0000605 103.5586 256.5473 15.08867826 81564,6917.795,95.436,540.079,539.242,0.0
49425.0,STARLINK-3139,PAYLOAD,2023-04-27 08:30:13,15.08875813,9.08e-05,53.2155,250.8004,93.4832,266.6264,0.0015462,0.0002443,0.0,0 STARLINK-3139,1 49425U 21104T   23117.35432203  .00024430  00000-0  15462-2 0  9991,2 49425  53.2155 250.8004 0000908  93.4832 266.6264 15.08875813 80525,6917.771,95.435,540.264,539.008,0.0
49425.0,STARLINK-3139,PAYLOAD,2023-04-28 11:31:46,15.08835801,9.79e-05,53.2149,245.7453,51.5866,308.5214,0.0014966,0.00023608,0.0,0 STARLINK-3139,1 49425U 21104T   23118.48039362  .00023608  00000-0  14966-2 0  9999,2 49425  53.2149 245.7453 0000979  51.5866 308.5214 15.08835801 81771,6917.893,95.438,540.435,539.081,0.0
49425.0,STARLINK-3139,PAYLOAD,2023-04-29 01:50:14,15.08843314,0.000147,53.2136,243.0704,51.1701,308.9422,0.001021,0.00016,0.0,0 STARLINK-3139,1 49425U 21104T   23119.07655594  .00016000  00000-0  10210-2 0  9992,2 49425  53.2136 243.0704 0001470  51.1701 308.9422 15.08843314 81861,6917.87,95.437,540.752,538.718,0.0
49425.0,STARLINK-3139,PAYLOAD,2023-04-29 12:57:56,15.08837842,0.0001069,53.2156,240.9874,62.205,297.905,0.00037521,5.688e-05,0.0,0 STARLINK-3139,1 49425U 21104T   23119.54023752  .00005688  00000-0  37521-3 0  9994,2 49425  53.2156 240.9874 0001069  62.2050 297.9050 15.08837842 80852,6917.887,95.438,540.492,539.012,0.0
49425.0,STARLINK-3139,PAYLOAD,2023-04-29 17:44:05,15.08846226,8.59e-05,53.2153,240.0934,64.0231,296.0849,0.00047445,7.272e-05,0.0,0 STARLINK-3139,1 49425U 21104T   23119.73895521  .00007272  00000-0  47445-3 0  9993,2 49425  53.2153 240.0934 0000859  64.0231 296.0849 15.08846226 81969,6917.861,95.437,540.321,539.132,0.0
49425.0,STARLINK-3139,PAYLOAD,2023-04-30 14:24:06,15.08845942,0.0001001,53.2153,236.2283,61.7731,298.3362,0.00042746,6.523e-05,0.0,0 STARLINK-3139,1 49425U 21104T   23120.60007656  .00006523  00000-0  42746-3 0  9992,2 49425  53.2153 236.2283 0001001  61.7731 298.3362 15.08845942 82096,6917.862,95.437,540.42,539.035,0.0
49425.0,STARLINK-3139,PAYLOAD,2023-05-01 12:39:30,15.08835271,7.79e-05,53.2152,232.0635,90.203,269.9051,5.5307e-05,5.93e-06,0.0,0 STARLINK-3139,1 49425U 21104T   23121.52744010  .00000593  00000-0  55307-4 0  9995,2 49425  53.2152 232.0635 0000779  90.2030 269.9051 15.08835271 82239,6917.895,95.438,540.299,539.221,0.0
49425.0,STARLINK-3139,PAYLOAD,2023-05-02 12:30:17,15.08858032,8.07e-05,53.2156,227.6038,79.7019,280.4064,0.00072926,0.00011343,0.0,0 STARLINK-3139,1 49425U 21104T   23122.52103517  .00011343  00000-0  72926-3 0  9997,2 49425  53.2156 227.6038 0000807  79.7019 280.4064 15.08858032 82389,6917.825,95.436,540.249,539.132,0.0
49425.0,STARLINK-3139,PAYLOAD,2023-05-02 14:05:40,15.08864124,8.11e-05,53.2157,227.3061,75.1276,284.9806,0.00099623,0.00015613,0.0,0 STARLINK-3139,1 49425U 21104T   23122.58727427  .00015613  00000-0  99623-3 0  9992,2 49425  53.2157 227.3061 0000811  75.1276 284.9806 15.08864124 81317,6917.807,95.436,540.233,539.111,0.0
49425.0,STARLINK-3139,PAYLOAD,2023-05-02 23:37:59,15.08853872,0.0001107,53.2156,225.522,84.9236,275.1882,0.00026797,3.981e-05,0.0,0 STARLINK-3139,1 49425U 21104T   23122.98471398  .00003981  00000-0  26797-3 0  9996,2 49425  53.2156 225.5220 0001107  84.9236 275.1882 15.08853872 82456,6917.838,95.437,540.469,538.937,0.0
49425.0,STARLINK-3139,PAYLOAD,2023-05-03 12:21:04,15.08840181,8.15e-05,53.2154,223.1436,90.9534,269.1552,6.1673e-05,6.94e-06,0.0,0 STARLINK-3139,1 49425U 21104T   23123.51463547  .00000694  00000-0  61673-4 0  9994,2 49425  53.2154 223.1436 0000815  90.9534 269.1552 15.08840181 82535,6917.88,95.438,540.309,539.181,0.0
49425.0,STARLINK-3139,PAYLOAD,2023-05-03 13:56:27,15.08839218,8.69e-05,53.2153,222.8468,86.3947,273.7144,8.7014e-05,1.097e-05,0.0,0 STARLINK-3139,1 49425U 21104T   23123.58087644  .00001097  00000-0  87014-4 0  9996,2 49425  53.2153 222.8468 0000869  86.3947 273.7144 15.08839218 81469,6917.883,95.438,540.349,539.147,0.0
49425.0,STARLINK-3139,PAYLOAD,2023-05-03 15:31:50,15.08844098,7.97e-05,53.2154,222.549,96.8665,263.2418,0.00036044,5.454e-05,0.0,0 STARLINK-3139,1 49425U 21104T   23123.64711507  .00005454  00000-0  36044-3 0  9992,2 49425  53.2154 222.5490 0000797  96.8665 263.2418 15.08844098 81476,6917.868,95.437,540.284,539.182,0.0
49425.0,STARLINK-3139,PAYLOAD,2023-05-04 13:47:14,15.08851451,8.46e-05,53.2153,218.3863,104.9249,255.1837,0.0006893,0.00010703,0.0,0 STARLINK-3139,1 49425U 21104T   23124.57447564  .00010703  00000-0  68930-3 0  9996,2 49425  53.2153 218.3863 0000846 104.9249 255.1837 15.08851451 82697,6917.845,95.437,540.296,539.125,0.0
49425.0,STARLINK-3139,PAYLOAD,2023-05-04 15:22:37,15.08853984,8.46e-05,53.2152,218.0886,99.784,260.3248,0.00074398,0.00011577,0.0,0 STARLINK-3139,1 49425U 21104T   23124.64071505  .00011577  00000-0  74398-3 0  9997,2 49425  53.2152 218.0886 0000846  99.7840 260.3248 15.08853984 81625,6917.838,95.437,540.288,539.117,0.0
